{
    "links": {
        "self": "http://www.neowsapp.com/rest/v1/neo/3624748?api_key=iIulBulltgU6a56xZRHN4H3l9WmuAYTsLGpBGhQ2"
    },
    "id": "3624748",
    "neo_reference_id": "3624748",
    "name": "(2013 BL18)",
    "designation": "2013 BL18",
    "nasa_jpl_url": "http://ssd.jpl.nasa.gov/sbdb.cgi?sstr=3624748",
    "absolute_magnitude_h": 25.9,
    "estimated_diameter": {
        "kilometers": {
            "estimated_diameter_min": 0.0175612318,
            "estimated_diameter_max": 0.0392681082
        },
        "meters": {
            "estimated_diameter_min": 17.561231848,
            "estimated_diameter_max": 39.2681081809
        },
        "miles": {
            "estimated_diameter_min": 0.0109120402,
            "estimated_diameter_max": 0.0244000636
        },
        "feet": {
            "estimated_diameter_min": 57.6155918963,
            "estimated_diameter_max": 128.8323800441
        }
    },
    "is_potentially_hazardous_asteroid": false,
    "close_approach_data": [
        {
            "close_approach_date": "1925-01-01",
            "close_approach_date_full": "1925-Jan-01 18:52",
            "epoch_date_close_approach": -1420002480000,
            "relative_velocity": {
                "kilometers_per_second": "11.8620597243",
                "kilometers_per_hour": "42703.4150075383",
                "miles_per_hour": "26534.2413973229"
            },
            "miss_distance": {
                "astronomical": "0.0901536325",
                "lunar": "35.0697630425",
                "kilometers": "13486791.394762775",
                "miles": "8380303.572865295"
            },
            "orbiting_body": "Earth"
        },
        {
            "close_approach_date": "2013-01-13",
            "close_approach_date_full": "2013-Jan-13 15:36",
            "epoch_date_close_approach": 1358091360000,
            "relative_velocity": {
                "kilometers_per_second": "14.2760998553",
                "kilometers_per_hour": "51393.9594790228",
                "miles_per_hour": "31934.207766285"
            },
            "miss_distance": {
                "astronomical": "0.0038925483",
                "lunar": "1.5142012887",
                "kilometers": "582316.934552121",
                "miles": "361834.9646204298"
            },
            "orbiting_body": "Moon"
        },
        {
            "close_approach_date": "2013-01-13",
            "close_approach_date_full": "2013-Jan-13 22:47",
            "epoch_date_close_approach": 1358117220000,
            "relative_velocity": {
                "kilometers_per_second": "14.332275161",
                "kilometers_per_hour": "51596.1905796608",
                "miles_per_hour": "32059.8663076787"
            },
            "miss_distance": {
                "astronomical": "0.0032678548",
                "lunar": "1.2711955172",
                "kilometers": "488864.117549276",
                "miles": "303766.0768249688"
            },
            "orbiting_body": "Earth"
        }
    ],
    "orbital_data": {
        "orbit_id": "8",
        "orbit_determination_date": "2017-04-06 08:47:06",
        "first_observation_date": "2013-01-17",
        "last_observation_date": "2013-02-01",
        "data_arc_in_days": 15,
        "observations_used": 28,
        "orbit_uncertainty": "8",
        "minimum_orbit_intersection": ".0030216",
        "jupiter_tisserand_invariant": "3.600",
        "epoch_osculation": "2456313.5",
        "eccentricity": ".5920404185404945",
        "semi_major_axis": "1.993207325539387",
        "inclination": "7.519327237795342",
        "ascending_node_longitude": "295.1128099541082",
        "orbital_period": "1027.843843294459",
        "perihelion_distance": ".8131480262890688",
        "perihelion_argument": "120.8639090458453",
        "aphelion_distance": "3.173266624789706",
        "perihelion_time": "2456267.477495968554",
        "mean_anomaly": "16.11927877897896",
        "mean_motion": ".3502477563577391",
        "equinox": "J2000",
        "orbit_class": {
            "orbit_class_type": "APO",
            "orbit_class_description": "Near-Earth asteroid orbits which cross the Earth’s orbit similar to that of 1862 Apollo",
            "orbit_class_range": "a (semi-major axis) > 1.0 AU; q (perihelion) < 1.017 AU"
        }
    },
    "is_sentry_object": false
}